{
  "type": "FeatureCollection",
  "features": [
    {
      "type": "Feature",
      "properties": {
        "norad_id": 28051,
        "name": "IRS-P6 (RESOURCESAT-1)",
        "group": "resource",
        "lat": 24.715294357422067,
        "lon": -157.55062965115383,
        "alt_km": 743.0193523867974,
        "timestamp": "2025-12-03T19:33:06.635944+00:00",
        "meta_object_name": "IRS-P6 (RESOURCESAT-1)",
        "meta_object_id": "2003-046A",
        "meta_epoch": "2025-12-03T12:38:12.287040",
        "meta_mean_motion": 14.36067604,
        "meta_eccentricity": 0.0063659,
        "meta_inclination": 98.2191,
        "meta_ra_of_asc_node": 18.3601,
        "meta_arg_of_pericenter": 208.442,
        "meta_mean_anomaly": 258.3255,
        "meta_ephemeris_type": 0,
        "meta_classification_type": "U",
        "meta_norad_cat_id": 28051,
        "meta_element_set_no": 999,
        "meta_rev_at_epoch": 15244,
        "meta_bstar": 0.00013005,
        "meta_mean_motion_dot": 3.46e-06,
        "meta_mean_motion_ddot": 0,
        "tle_line1": "1 28051U 03046A   25337.52653110  .00000346  00000+0  13005-3 0  9996",
        "tle_line2": "2 28051  98.2191  18.3601 0063659 208.4420 258.3255 14.36067604152449"
      },
      "geometry": {
        "type": "Point",
        "coordinates": [
          -157.55062965115383,
          24.715294357422067
        ]
      }
    },
    {
      "type": "Feature",
      "properties": {
        "norad_id": 28220,
        "name": "SHIYAN-1 (SY-1)",
        "group": "resource",
        "lat": -38.833506306027886,
        "lon": 45.243308043510694,
        "alt_km": 485.59013170724756,
        "timestamp": "2025-12-03T19:33:06.635956+00:00",
        "meta_object_name": "SHIYAN-1 (SY-1)",
        "meta_object_id": "2004-012A",
        "meta_epoch": "2025-12-03T10:17:30.156000",
        "meta_mean_motion": 15.27757445,
        "meta_eccentricity": 0.0006296,
        "meta_inclination": 97.8956,
        "meta_ra_of_asc_node": 38.4206,
        "meta_arg_of_pericenter": 0.1303,
        "meta_mean_anomaly": 359.9935,
        "meta_ephemeris_type": 0,
        "meta_classification_type": "U",
        "meta_norad_cat_id": 28220,
        "meta_element_set_no": 999,
        "meta_rev_at_epoch": 18114,
        "meta_bstar": 0.00059583,
        "meta_mean_motion_dot": 0.00016102,
        "meta_mean_motion_ddot": 0,
        "tle_line1": "1 28220U 04012A   25337.42882125  .00016102  00000+0  59583-3 0  9995",
        "tle_line2": "2 28220  97.8956  38.4206 0006296   0.1303 359.9935 15.27757445181148"
      },
      "geometry": {
        "type": "Point",
        "coordinates": [
          45.243308043510694,
          -38.833506306027886
        ]
      }
    },
    {
      "type": "Feature",
      "properties": {
        "norad_id": 28376,
        "name": "AURA",
        "group": "resource",
        "lat": -15.332454577958721,
        "lon": -69.70080020192624,
        "alt_km": 695.1805137901283,
        "timestamp": "2025-12-03T19:33:06.635967+00:00",
        "meta_object_name": "AURA",
        "meta_object_id": "2004-026A",
        "meta_epoch": "2025-12-03T11:24:13.339296",
        "meta_mean_motion": 14.60910256,
        "meta_eccentricity": 0.0001084,
        "meta_inclination": 98.317,
        "meta_ra_of_asc_node": 287.6596,
        "meta_arg_of_pericenter": 91.1236,
        "meta_mean_anomaly": 269.0088,
        "meta_ephemeris_type": 0,
        "meta_classification_type": "U",
        "meta_norad_cat_id": 28376,
        "meta_element_set_no": 999,
        "meta_rev_at_epoch": 13763,
        "meta_bstar": 0.0003482,
        "meta_mean_motion_dot": 1.657e-05,
        "meta_mean_motion_ddot": 0,
        "tle_line1": "1 28376U 04026A   25337.47515439  .00001657  00000+0  34820-3 0  9994",
        "tle_line2": "2 28376  98.3170 287.6596 0001084  91.1236 269.0088 14.60910256137631"
      },
      "geometry": {
        "type": "Point",
        "coordinates": [
          -69.70080020192624,
          -15.332454577958721
        ]
      }
    },
    {
      "type": "Feature",
      "properties": {
        "norad_id": 28649,
        "name": "IRS-P5 (CARTOSAT-1)",
        "group": "resource",
        "lat": -26.627528256810198,
        "lon": 8.43674522934789,
        "alt_km": 602.3611053513905,
        "timestamp": "2025-12-03T19:33:06.635978+00:00",
        "meta_object_name": "IRS-P5 (CARTOSAT-1)",
        "meta_object_id": "2005-017A",
        "meta_epoch": "2025-12-03T11:36:55.412352",
        "meta_mean_motion": 14.90351653,
        "meta_eccentricity": 0.0001769,
        "meta_inclination": 97.5501,
        "meta_ra_of_asc_node": 4.3079,
        "meta_arg_of_pericenter": 53.2464,
        "meta_mean_anomaly": 306.8917,
        "meta_ephemeris_type": 0,
        "meta_classification_type": "U",
        "meta_norad_cat_id": 28649,
        "meta_element_set_no": 999,
        "meta_rev_at_epoch": 11466,
        "meta_bstar": 0.00030249,
        "meta_mean_motion_dot": 2.89e-05,
        "meta_mean_motion_ddot": 0,
        "tle_line1": "1 28649U 05017A   25337.48397468  .00002890  00000+0  30249-3 0  9990",
        "tle_line2": "2 28649  97.5501   4.3079 0001769  53.2464 306.8917 14.90351653114667"
      },
      "geometry": {
        "type": "Point",
        "coordinates": [
          8.43674522934789,
          -26.627528256810198
        ]
      }
    },
    {
      "type": "Feature",
      "properties": {
        "norad_id": 28893,
        "name": "SINAH 1",
        "group": "resource",
        "lat": 80.8870072316046,
        "lon": -8.7446433208474,
        "alt_km": 669.4210457269801,
        "timestamp": "2025-12-03T19:33:06.635989+00:00",
        "meta_object_name": "SINAH 1",
        "meta_object_id": "2005-043D",
        "meta_epoch": "2025-12-03T10:55:20.476704",
        "meta_mean_motion": 14.63945212,
        "meta_eccentricity": 0.0014828,
        "meta_inclination": 98.26,
        "meta_ra_of_asc_node": 105.9879,
        "meta_arg_of_pericenter": 164.9029,
        "meta_mean_anomaly": 195.2619,
        "meta_ephemeris_type": 0,
        "meta_classification_type": "U",
        "meta_norad_cat_id": 28893,
        "meta_element_set_no": 999,
        "meta_rev_at_epoch": 7188,
        "meta_bstar": 0.00016282,
        "meta_mean_motion_dot": 8.04e-06,
        "meta_mean_motion_ddot": 0,
        "tle_line1": "1 28893U 05043D   25337.45509811  .00000804  00000+0  16282-3 0  9998",
        "tle_line2": "2 28893  98.2600 105.9879 0014828 164.9029 195.2619 14.63945212 71884"
      },
      "geometry": {
        "type": "Point",
        "coordinates": [
          -8.7446433208474,
          80.8870072316046
        ]
      }
    },
    {
      "type": "Feature",
      "properties": {
        "norad_id": 29079,
        "name": "EROS B",
        "group": "resource",
        "lat": 52.43856186189659,
        "lon": 84.32468914341894,
        "alt_km": 370.58315760256664,
        "timestamp": "2025-12-03T19:33:06.636000+00:00",
        "meta_object_name": "EROS B",
        "meta_object_id": "2006-014A",
        "meta_epoch": "2025-12-03T11:39:05.486688",
        "meta_mean_motion": 15.64656334,
        "meta_eccentricity": 0.0002171,
        "meta_inclination": 97.3489,
        "meta_ra_of_asc_node": 93.6431,
        "meta_arg_of_pericenter": 235.7623,
        "meta_mean_anomaly": 124.3431,
        "meta_ephemeris_type": 0,
        "meta_classification_type": "U",
        "meta_norad_cat_id": 29079,
        "meta_element_set_no": 999,
        "meta_rev_at_epoch": 8935,
        "meta_bstar": 0.0017029,
        "meta_mean_motion_dot": 0.00167689,
        "meta_mean_motion_ddot": 0,
        "tle_line1": "1 29079U 06014A   25337.48548017  .00167689  00000+0  17029-2 0  9992",
        "tle_line2": "2 29079  97.3489  93.6431 0002171 235.7623 124.3431 15.64656334 89350"
      },
      "geometry": {
        "type": "Point",
        "coordinates": [
          84.32468914341894,
          52.43856186189659
        ]
      }
    },
    {
      "type": "Feature",
      "properties": {
        "norad_id": 29228,
        "name": "RESURS-DK 1",
        "group": "resource",
        "lat": -65.54004072233529,
        "lon": -1.6220032168917942,
        "alt_km": 531.128247212002,
        "timestamp": "2025-12-03T19:33:06.636012+00:00",
        "meta_object_name": "RESURS-DK 1",
        "meta_object_id": "2006-021A",
        "meta_epoch": "2025-12-03T12:04:24.593088",
        "meta_mean_motion": 15.12074671,
        "meta_eccentricity": 0.0007837,
        "meta_inclination": 69.9327,
        "meta_ra_of_asc_node": 125.7053,
        "meta_arg_of_pericenter": 265.3674,
        "meta_mean_anomaly": 94.6597,
        "meta_ephemeris_type": 0,
        "meta_classification_type": "U",
        "meta_norad_cat_id": 29228,
        "meta_element_set_no": 999,
        "meta_rev_at_epoch": 7298,
        "meta_bstar": 0.00027747,
        "meta_mean_motion_dot": 4.683e-05,
        "meta_mean_motion_ddot": 0,
        "tle_line1": "1 29228U 06021A   25337.50306242  .00004683  00000+0  27747-3 0  9994",
        "tle_line2": "2 29228  69.9327 125.7053 0007837 265.3674  94.6597 15.12074671 72982"
      },
      "geometry": {
        "type": "Point",
        "coordinates": [
          -1.6220032168917942,
          -65.54004072233529
        ]
      }
    }
  ]
}